#dP2024  6  9 12  0  0.00000000      96 __u+U IGS20 EXT  IAC
## 2318  43200.00000000   900.00000000 60470 0.5000000000000
+   54   G02G03G04G05G06G07G08G09G10G11G12G13G14G15G16G17G18
+        G19G20G21G22G23G24G25G26G27G28G29G30G31G32R01R02R03
+        R04R05R07R08R09R11R12R13R14R15R16R17R18R19R20R21R22
+        R24R25R26  0  0  0  0  0  0  0  0  0  0  0  0  0  0
+          0  0  0  0  0  0  0  0  0  0  0  0  0  0  0  0  0
++         9 11  8  8  8  8  9 10  9  8  7  9  8  7  9  7  9
++         6  8  8  8 10  7  9  7  9  7  8  9  9  7  7  8  9
++         8  8  9 10  8  8  8  9 10  7  8  8  8  8  9  8  6
++         6  8  9  0  0  0  0  0  0  0  0  0  0  0  0  0  0
++         0  0  0  0  0  0  0  0  0  0  0  0  0  0  0  0  0
%c M  cc GPS ccc cccc cccc cccc cccc ccccc ccccc ccccc ccccc
%c cc cc ccc ccc cccc cccc cccc cccc ccccc ccccc ccccc ccccc
%f  0.0000000  0.000000000  0.00000000000  0.000000000000000
%f  0.0000000  0.000000000  0.00000000000  0.000000000000000
%i    0    0    0    0      0      0      0      0         0
%i    0    0    0    0      0      0      0      0         0
/* IAC                                ULTRA-RAPID PREDICTION
/* S/V CLOCKS ARE ALIGNED TO GNSS TIME                      
/* G:C1WC2W R:C1PC2P E:C1XC5X C:C2IC6I J:C1CC2S             
/* PCV:IGS20_2317 OL/AL:FES2004  NONE     YN ORB:CoN CLK:CoN
*  2024 06 10  4  0  0.00000000
PG02 -22763.537792 -13774.885428   2946.934426   -420.539428
PG03 -13068.475041  -7967.470983  21565.672471    406.279008
PG04 -22353.817932  -3153.679904  14118.857606    379.925198
PG05   6579.135853  21786.950579 -13799.893670   -175.787628
PG06  -4517.378675  14883.593508  21570.928566    226.973749
PG07 -19821.249474   -552.993846 -17369.323983    -97.450041
PG08 -14363.536108  -9813.652371 -20292.012104    222.351920
PG09 -25345.299219   7312.638700   3248.935550    228.920089
PG10  10496.721617 -22202.733685  -9479.562307    -39.661299
PG11   8108.269353  20995.682775  14170.262084   -682.153007
PG12  12074.165477  10956.324524  20695.981733   -512.802270
PG13   5046.301969  14318.396101 -22014.382886    656.843142
PG14 -13213.453888  19196.383032 -12505.078308    421.752830
PG15  15410.733662   8717.061714 -20350.633940    168.469650
PG16  -2028.128150 -23643.989660 -11784.425147   -268.480287
PG17 -20627.225002  13500.250899  10512.901555    696.686178
PG18  18951.005654   -187.851100 -18678.301036   -622.911142
PG19 -13061.038425  15223.545678  17025.885103    494.265981
PG20   2482.858429  26262.502530  -3667.125317    373.997005
PG21 -21110.659809 -16806.580846  -2279.764318    116.407688
PG22  -9971.310982  24304.847164  -4436.417325    -25.297266
PG23  14472.759997 -12175.873708 -18540.158541    246.626970
PG24  21864.748959  15473.897189   -292.646228   -476.641025
PG25  15432.517532   -230.509443  21262.574963    497.117820
PG26   4260.286091 -25906.273605   2198.927285    139.449397
PG27  -2306.972058 -15341.405743 -21812.945811    -27.656690
PG28   6708.149836 -13934.756038  21582.870798   -282.083525
PG29  25791.589645  -2892.074789   5882.730607   -594.899746
PG30 -12268.360409  10069.558815 -21164.596350   -376.729396
PG31  -3572.624884 -19532.201361  17232.593024   -227.480362
PG32  18028.253254 -15467.436655  11888.116892   -616.665977
PR01 -19450.215312   9076.802499  13771.449961     87.938931
PR02 -18418.266282  17462.218719  -2814.738198    -23.208991
PR03  -6447.248566  16830.601608 -18027.936391    101.794247
PR04   8426.968459   6811.158540 -23060.645709    240.395265
PR05  18974.698316  -6627.489005 -15681.587660    132.869355
PR07   5664.760477 -16496.635597  18635.500365     84.257929
PR08  -8815.307603  -6639.777951  23060.182691     -4.794105
PR09   5780.396510 -16345.367304  18768.682583    191.390252
PR11  -9786.924783 -20703.694798 -11243.452798     21.907958
PR12 -11562.729440  -2544.920372 -22563.783636     41.144187
PR13  -6993.024483  13846.302240 -20257.784871    -48.203298
PR14   3065.111741  24919.696457  -4418.362618     26.564307
PR15  10195.174800  19651.679985  12685.027581     78.972838
PR16  11472.302577   2734.463573  22627.240228     26.357596
PR17   5460.542708  12396.819250  21625.051609     94.485888
PR18  19667.358043  12244.794797  10629.685437    146.287144
PR19  24011.895412   7518.907110  -4217.103640   -279.762489
PR20  13775.365584  -4573.885736 -20962.999592   -114.213874
PR21  -5032.263916 -12299.384008 -21772.804835   -107.986462
PR22 -20047.291097 -12644.955022  -9420.451370    104.459531
PR24 -13230.995604   5879.801863  21005.683938    -59.237856
PR25  -5100.919410 -12914.063756 -21391.814574    -42.406551
PR26  -7728.106195  -7599.426367  23111.992881     -6.627324
*  2024 06 10  4 15  0.00000000
PG02 -22746.234632 -14019.369849    102.673551   -420.533105
PG03 -12650.816497 -10380.382349  20790.667560    406.295508
PG04 -20783.906436  -3887.167916  16174.365426    379.932533
PG05   6253.202493  23180.678349 -11441.412601   -175.788842
PG06  -6456.986521  13338.828576  22092.772977    226.954943
PG07 -21249.516838  -1908.310312 -15586.378130    -97.439668
PG08 -12241.507854 -10804.743530 -21128.383747    222.368628
PG09 -24946.739253   6869.736099   6031.594758    228.933128
PG10  10495.712394 -20922.828691 -12026.724397    -39.668460
PG11   6693.836561  19981.348475  16224.647727   -682.160465
PG12  11475.327734  13247.259034  19690.568520   -512.805112
PG13   2640.180598  14885.372558 -22038.021722    656.845534
PG14 -13184.391838  17604.858625 -14699.413318    421.761039
PG15  13482.763391   9933.414998 -21148.888831    168.473429
PG16  -1517.425766 -24728.791593  -9258.854254   -268.470948
PG17 -21633.548236  13626.850417   7913.556914    696.681448
PG18  20445.422163   1197.151362 -17008.198771   -622.915704
PG19 -14921.520846  15547.989267  15079.259107    494.270813
PG20   2228.769302  26533.920139   -848.651559    373.996625
PG21 -20633.105841 -16704.810955  -5037.584170    116.405532
PG22 -10027.049718  23563.283478  -7173.135853    -25.301765
PG23  14313.535727  -9971.084670 -19943.751114    246.635276
PG24  21580.461486  15644.753833  -3060.936725   -476.643452
PG25  15127.074290   2267.045405  21383.595216    497.118294
PG26   4594.578499 -25449.324248   4975.069835    139.443821
PG27    -49.943976 -16186.503359 -21273.732135    -27.658028
PG28   8709.917469 -12466.626100  21764.868847   -282.098810
PG29  25058.488806  -2450.610843   8591.001717   -594.898245
PG30 -14142.299676   8517.859060 -20698.881719   -376.723909
PG31  -1834.735415 -18313.601227  18790.376944   -227.480189
PG32  19221.217761 -15705.017112   9383.517428   -616.665043
PR01 -18055.247240   7856.395572  16207.731793     87.939870
PR02 -18414.364563  17695.987820    400.134682    -23.208972
PR03  -7906.532575  18342.821970 -15850.507518    101.794969
PR04   6316.679082   8737.297460 -23086.685631    240.396726
PR05  17354.899188  -5322.070720 -17898.264962    132.870022
PR07   7179.355449 -18047.290208  16551.674724     84.258767
PR08  -6735.403358  -8566.162788  23124.051561     -4.794370
PR09   6349.483095 -14005.840673  20399.977082    191.392241
PR11 -10202.275502 -21847.775825  -8339.479800     21.906911
PR12 -12227.222952  -5203.762140 -21742.307114     41.144688
PR13  -7564.567455  11331.410494 -21573.016156    -48.203541
PR14   2996.685598  24176.360982  -7506.641943     26.564401
PR15  10623.658839  20978.391878   9896.389477     78.972665
PR16  12154.035422   5385.986233  21775.923867     26.358012
PR17   2873.424742  11527.173378  22579.929209     94.488896
PR18  18309.161235  11620.006695  13402.066572    146.288900
PR19  24388.288228   7421.414997   -992.357459   -279.763687
PR20  16156.225945  -3826.471518 -19348.040991   -114.214416
PR21  -2436.049871 -11404.176743 -22688.664871   -107.989236
PR22 -18827.708995 -12073.188668 -12253.302370    104.456021
PR24 -15635.103583   5203.292691  19474.340873    -59.239115
PR25  -2571.456567 -11964.734484 -22376.494837    -42.434783
PR26  -5664.969874  -9550.855177  22987.506479     -6.626533
EOF
